GLOBALSTAR M045 [-]     
1 25676U 99019A   24051.77702720 -.00000051  00000+0  37228-3 0  9999
2 25676  51.9941 240.2046 0001215  61.0604 311.9585 12.27032107134174
GLOBALSTAR M019 [-]     
1 25677U 99019B   24051.98497118 -.00000187  00000+0 -10112-2 0  9998
2 25677  51.9908 336.0559 0001555  62.8795  18.6501 12.13851837126587
GLOBALSTAR M044 [-]     
1 25678U 99019C   24051.91129646 -.00000055  00000+0  40254-3 0  9994
2 25678  51.9936 227.2849 0006316 181.8007 328.9956 11.90229348113891
GLOBALSTAR M025 [-]     
1 25770U 99031A   24051.66738965 -.00000066  00000+0  35696-4 0  9990
2 25770  51.9792 197.0550 0002123  81.2738 291.7667 11.22549635427526
GLOBALSTAR M049 [-]     
1 25771U 99031B   24051.68168571  .00000005  00000+0  24526-2 0  9993
2 25771  51.9843 207.5368 0002143 283.3901  76.6657 11.12103717 63742
GLOBALSTAR M047 [-]     
1 25772U 99031C   24051.81122872 -.00000028  00000+0  11577-2 0  9991
2 25772  51.9801 250.2997 0016822 151.1090 209.0650 11.31918702416487
GLOBALSTAR M052 [-]     
1 25773U 99031D   24051.94502880 -.00000019  00000+0  15821-2 0  9993
2 25773  51.9898 322.3999 0003145  86.7590 357.2962 11.15048442424713
